[{"OBJECT_NAME":"USA 485","OBJECT_ID":"2025-014X","EPOCH":"2026-03-09T04:18:38.394720","MEAN_MOTION":15.76397978,"ECCENTRICITY":0.00012384,"INCLINATION":43.0004,"RA_OF_ASC_NODE":358.6505,"ARG_OF_PERICENTER":304.4993,"MEAN_ANOMALY":55.576,"EPHEMERIS_TYPE":0,"CLASSIFICATION_TYPE":"U","NORAD_CAT_ID":62756,"ELEMENT_SET_NO":999,"REV_AT_EPOCH":6498,"BSTAR":0.0024900352,"MEAN_MOTION_DOT":0.00426696,"MEAN_MOTION_DDOT":0},{"OBJECT_NAME":"STARLINK-36976","OBJECT_ID":"2026-041AC","EPOCH":"2026-03-09T22:00:01.999584","MEAN_MOTION":15.94520916,"ECCENTRICITY":5.248e-5,"INCLINATION":53.1591,"RA_OF_ASC_NODE":60.9761,"ARG_OF_PERICENTER":97.2103,"MEAN_ANOMALY":290.2929,"EPHEMERIS_TYPE":0,"CLASSIFICATION_TYPE":"U","NORAD_CAT_ID":68066,"ELEMENT_SET_NO":999,"REV_AT_EPOCH":241,"BSTAR":-0.0040688559,"MEAN_MOTION_DOT":-0.01572015,"MEAN_MOTION_DDOT":0.00071491235}]
